{
  "type": "FeatureCollection",
  "features": [
    {
      "type": "Feature",
      "properties": {
        "norad_id": 37846,
        "name": "GSAT0101 (GALILEO-PFM)",
        "group": "galileo",
        "lat": -22.319201703904536,
        "lon": -28.891200219060547,
        "alt_km": 23215.774305941177,
        "timestamp": "2025-12-22T05:49:03.762168+00:00",
        "meta_object_name": "GSAT0101 (GALILEO-PFM)",
        "meta_object_id": "2011-060A",
        "meta_epoch": "2025-12-21T02:42:49.222944",
        "meta_mean_motion": 1.70475776,
        "meta_eccentricity": 0.00032099,
        "meta_inclination": 57.0509,
        "meta_ra_of_asc_node": 346.5929,
        "meta_arg_of_pericenter": 319.8352,
        "meta_mean_anomaly": 40.1502,
        "meta_ephemeris_type": 0,
        "meta_classification_type": "U",
        "meta_norad_cat_id": 37846,
        "meta_element_set_no": 999,
        "meta_rev_at_epoch": 8808,
        "meta_bstar": 0,
        "meta_mean_motion_dot": -6.8e-07,
        "meta_mean_motion_ddot": 0,
        "tle_line1": "1 37846U 11060A   25355.11306971 -.00000068  00000+0  00000+0 0  9997",
        "tle_line2": "2 37846  57.0509 346.5929 0003209 319.8352  40.1502  1.70475776 88089"
      },
      "geometry": {
        "type": "Point",
        "coordinates": [
          -28.891200219060547,
          -22.319201703904536
        ]
      }
    },
    {
      "type": "Feature",
      "properties": {
        "norad_id": 37847,
        "name": "GSAT0102 (GALILEO-FM2)",
        "group": "galileo",
        "lat": 15.525170343211622,
        "lon": -3.0683430135827137,
        "alt_km": 23213.937153655916,
        "timestamp": "2025-12-22T05:49:03.762191+00:00",
        "meta_object_name": "GSAT0102 (GALILEO-FM2)",
        "meta_object_id": "2011-060B",
        "meta_epoch": "2025-12-21T07:52:29.961984",
        "meta_mean_motion": 1.70476011,
        "meta_eccentricity": 0.00051511,
        "meta_inclination": 57.0515,
        "meta_ra_of_asc_node": 346.5875,
        "meta_arg_of_pericenter": 312.968,
        "meta_mean_anomaly": 224.4746,
        "meta_ephemeris_type": 0,
        "meta_classification_type": "U",
        "meta_norad_cat_id": 37847,
        "meta_element_set_no": 999,
        "meta_rev_at_epoch": 8809,
        "meta_bstar": 0,
        "meta_mean_motion_dot": -6.8e-07,
        "meta_mean_motion_ddot": 0,
        "tle_line1": "1 37847U 11060B   25355.32812456 -.00000068  00000+0  00000+0 0  9991",
        "tle_line2": "2 37847  57.0515 346.5875 0005151 312.9680 224.4746  1.70476011 88094"
      },
      "geometry": {
        "type": "Point",
        "coordinates": [
          -3.0683430135827137,
          15.525170343211622
        ]
      }
    },
    {
      "type": "Feature",
      "properties": {
        "norad_id": 38857,
        "name": "GSAT0103 (GALILEO-FM3)",
        "group": "galileo",
        "lat": -40.32911161445114,
        "lon": 71.04589640072355,
        "alt_km": 23220.533471765186,
        "timestamp": "2025-12-22T05:49:03.762206+00:00",
        "meta_object_name": "GSAT0103 (GALILEO-FM3)",
        "meta_object_id": "2012-055A",
        "meta_epoch": "2025-12-18T05:17:11.481792",
        "meta_mean_motion": 1.70473412,
        "meta_eccentricity": 0.00028558,
        "meta_inclination": 55.6954,
        "meta_ra_of_asc_node": 106.5161,
        "meta_arg_of_pericenter": 269.0808,
        "meta_mean_anomaly": 90.8455,
        "meta_ephemeris_type": 0,
        "meta_classification_type": "U",
        "meta_norad_cat_id": 38857,
        "meta_element_set_no": 999,
        "meta_rev_at_epoch": 8192,
        "meta_bstar": 0,
        "meta_mean_motion_dot": -7e-08,
        "meta_mean_motion_ddot": 0,
        "tle_line1": "1 38857U 12055A   25352.22027178 -.00000007  00000+0  00000+0 0  9996",
        "tle_line2": "2 38857  55.6954 106.5161 0002855 269.0808  90.8455  1.70473412 81920"
      },
      "geometry": {
        "type": "Point",
        "coordinates": [
          71.04589640072355,
          -40.32911161445114
        ]
      }
    },
    {
      "type": "Feature",
      "properties": {
        "norad_id": 40128,
        "name": "GSAT0201 (GALILEO 5)",
        "group": "galileo",
        "lat": 48.889121254924945,
        "lon": 3.8268791008571346,
        "alt_km": 20604.728710375555,
        "timestamp": "2025-12-22T05:49:03.762218+00:00",
        "meta_object_name": "GSAT0201 (GALILEO 5)",
        "meta_object_id": "2014-050A",
        "meta_epoch": "2025-12-21T00:18:08.005824",
        "meta_mean_motion": 1.85519694,
        "meta_eccentricity": 0.16487459,
        "meta_inclination": 49.0672,
        "meta_ra_of_asc_node": 280.7264,
        "meta_arg_of_pericenter": 172.5923,
        "meta_mean_anomaly": 190.2386,
        "meta_ephemeris_type": 0,
        "meta_classification_type": "U",
        "meta_norad_cat_id": 40128,
        "meta_element_set_no": 999,
        "meta_rev_at_epoch": 7501,
        "meta_bstar": 0,
        "meta_mean_motion_dot": -4.1e-07,
        "meta_mean_motion_ddot": 0,
        "tle_line1": "1 40128U 14050A   25355.01259266 -.00000041  00000+0  00000+0 0  9990",
        "tle_line2": "2 40128  49.0672 280.7264 1648745 172.5923 190.2386  1.85519694 75018"
      },
      "geometry": {
        "type": "Point",
        "coordinates": [
          3.8268791008571346,
          48.889121254924945
        ]
      }
    },
    {
      "type": "Feature",
      "properties": {
        "norad_id": 40129,
        "name": "GSAT0202 (GALILEO 6)",
        "group": "galileo",
        "lat": -36.79393431717075,
        "lon": -120.61687898630265,
        "alt_km": 24386.753082087485,
        "timestamp": "2025-12-22T05:49:03.762230+00:00",
        "meta_object_name": "GSAT0202 (GALILEO 6)",
        "meta_object_id": "2014-050B",
        "meta_epoch": "2025-12-18T13:46:22.484640",
        "meta_mean_motion": 1.85520466,
        "meta_eccentricity": 0.16491259,
        "meta_inclination": 49.0858,
        "meta_ra_of_asc_node": 279.9095,
        "meta_arg_of_pericenter": 173.2442,
        "meta_mean_anomaly": 189.3393,
        "meta_ephemeris_type": 0,
        "meta_classification_type": "U",
        "meta_norad_cat_id": 40129,
        "meta_element_set_no": 999,
        "meta_rev_at_epoch": 7713,
        "meta_bstar": 0,
        "meta_mean_motion_dot": -5.9e-07,
        "meta_mean_motion_ddot": 0,
        "tle_line1": "1 40129U 14050B   25352.57387135 -.00000059  00000+0  00000+0 0  9995",
        "tle_line2": "2 40129  49.0858 279.9095 1649125 173.2442 189.3393  1.85520466 77135"
      },
      "geometry": {
        "type": "Point",
        "coordinates": [
          -120.61687898630265,
          -36.79393431717075
        ]
      }
    },
    {
      "type": "Feature",
      "properties": {
        "norad_id": 40544,
        "name": "GSAT0203 (GALILEO 7)",
        "group": "galileo",
        "lat": 52.21188438875565,
        "lon": 108.93446109435219,
        "alt_km": 23234.426097106294,
        "timestamp": "2025-12-22T05:49:03.762242+00:00",
        "meta_object_name": "GSAT0203 (GALILEO 7)",
        "meta_object_id": "2015-017A",
        "meta_epoch": "2025-12-20T07:18:34.773696",
        "meta_mean_motion": 1.70475998,
        "meta_eccentricity": 0.00064692,
        "meta_inclination": 56.8445,
        "meta_ra_of_asc_node": 346.4738,
        "meta_arg_of_pericenter": 274.1452,
        "meta_mean_anomaly": 85.7909,
        "meta_ephemeris_type": 0,
        "meta_classification_type": "U",
        "meta_norad_cat_id": 40544,
        "meta_element_set_no": 999,
        "meta_rev_at_epoch": 6615,
        "meta_bstar": 0,
        "meta_mean_motion_dot": -7.1e-07,
        "meta_mean_motion_ddot": 0,
        "tle_line1": "1 40544U 15017A   25354.30456914 -.00000071  00000+0  00000+0 0  9999",
        "tle_line2": "2 40544  56.8445 346.4738 0006469 274.1452  85.7909  1.70475998 66152"
      },
      "geometry": {
        "type": "Point",
        "coordinates": [
          108.93446109435219,
          52.21188438875565
        ]
      }
    },
    {
      "type": "Feature",
      "properties": {
        "norad_id": 40545,
        "name": "GSAT0204 (GALILEO 8)",
        "group": "galileo",
        "lat": -38.12065151508598,
        "lon": -44.42473864598756,
        "alt_km": 23213.946019819836,
        "timestamp": "2025-12-22T05:49:03.762254+00:00",
        "meta_object_name": "GSAT0204 (GALILEO 8)",
        "meta_object_id": "2015-017B",
        "meta_epoch": "2025-12-20T13:26:28.826304",
        "meta_mean_motion": 1.70475697,
        "meta_eccentricity": 0.0006133,
        "meta_inclination": 56.8522,
        "meta_ra_of_asc_node": 346.4847,
        "meta_arg_of_pericenter": 266.5447,
        "meta_mean_anomaly": 93.3948,
        "meta_ephemeris_type": 0,
        "meta_classification_type": "U",
        "meta_norad_cat_id": 40545,
        "meta_element_set_no": 999,
        "meta_rev_at_epoch": 2920,
        "meta_bstar": 0,
        "meta_mean_motion_dot": -7e-07,
        "meta_mean_motion_ddot": 0,
        "tle_line1": "1 40545U 15017B   25354.56005586 -.00000070  00000+0  00000+0 0  9992",
        "tle_line2": "2 40545  56.8522 346.4847 0006133 266.5447  93.3948  1.70475697 29206"
      },
      "geometry": {
        "type": "Point",
        "coordinates": [
          -44.42473864598756,
          -38.12065151508598
        ]
      }
    }
  ]
}